[{"OBJECT_NAME":"STARLINK-36644","OBJECT_ID":"2026-033A","EPOCH":"2026-03-04T16:57:46.770048","MEAN_MOTION":15.82014745,"ECCENTRICITY":0.0001918,"INCLINATION":42.9973,"RA_OF_ASC_NODE":302.0633,"ARG_OF_PERICENTER":306.3229,"MEAN_ANOMALY":53.7465,"EPHEMERIS_TYPE":0,"CLASSIFICATION_TYPE":"U","NORAD_CAT_ID":67821,"ELEMENT_SET_NO":999,"REV_AT_EPOCH":383,"BSTAR":0.0017825,"MEAN_MOTION_DOT":0.00392283,"MEAN_MOTION_DDOT":0},{"OBJECT_NAME":"STARLINK-36643","OBJECT_ID":"2026-033B","EPOCH":"2026-03-04T16:56:42.032256","MEAN_MOTION":15.8201422,"ECCENTRICITY":0.0002145,"INCLINATION":42.9973,"RA_OF_ASC_NODE":302.0578,"ARG_OF_PERICENTER":302.4069,"MEAN_ANOMALY":57.6595,"EPHEMERIS_TYPE":0,"CLASSIFICATION_TYPE":"U","NORAD_CAT_ID":67822,"ELEMENT_SET_NO":999,"REV_AT_EPOCH":383,"BSTAR":0.0018521,"MEAN_MOTION_DOT":0.00408383,"MEAN_MOTION_DDOT":0},{"OBJECT_NAME":"STARLINK-36646","OBJECT_ID":"2026-033C","EPOCH":"2026-03-04T20:00:03.000384","MEAN_MOTION":15.82015461,"ECCENTRICITY":0.0002005,"INCLINATION":42.9982,"RA_OF_ASC_NODE":301.2687,"ARG_OF_PERICENTER":256.411,"MEAN_ANOMALY":113.9378,"EPHEMERIS_TYPE":0,"CLASSIFICATION_TYPE":"U","NORAD_CAT_ID":67823,"ELEMENT_SET_NO":999,"REV_AT_EPOCH":388,"BSTAR":6.8062e-6,"MEAN_MOTION_DOT":9.0e-6,"MEAN_MOTION_DDOT":0},{"OBJECT_NAME":"STARLINK-36647","OBJECT_ID":"2026-033D","EPOCH":"2026-03-04T16:54:31.968288","MEAN_MOTION":15.82385974,"ECCENTRICITY":0.0003497,"INCLINATION":42.997,"RA_OF_ASC_NODE":302.0453,"ARG_OF_PERICENTER":256.1043,"MEAN_ANOMALY":103.944,"EPHEMERIS_TYPE":0,"CLASSIFICATION_TYPE":"U","NORAD_CAT_ID":67824,"ELEMENT_SET_NO":999,"REV_AT_EPOCH":383,"BSTAR":0.0035702,"MEAN_MOTION_DOT":0.00843427,"MEAN_MOTION_DDOT":0},{"OBJECT_NAME":"STARLINK-36648","OBJECT_ID":"2026-033E","EPOCH":"2026-03-04T16:53:27.574368","MEAN_MOTION":15.8236336,"ECCENTRICITY":0.0003503,"INCLINATION":42.9966,"RA_OF_ASC_NODE":302.039,"ARG_OF_PERICENTER":256.2945,"MEAN_ANOMALY":103.7537,"EPHEMERIS_TYPE":0,"CLASSIFICATION_TYPE":"U","NORAD_CAT_ID":67825,"ELEMENT_SET_NO":999,"REV_AT_EPOCH":383,"BSTAR":0.0035653,"MEAN_MOTION_DOT":0.00841159,"MEAN_MOTION_DDOT":0},{"OBJECT_NAME":"STARLINK-35865","OBJECT_ID":"2026-033F","EPOCH":"2026-03-04T16:52:22.492704","MEAN_MOTION":15.82344423,"ECCENTRICITY":0.0004396,"INCLINATION":42.9967,"RA_OF_ASC_NODE":302.033,"ARG_OF_PERICENTER":253.6387,"MEAN_ANOMALY":106.4001,"EPHEMERIS_TYPE":0,"CLASSIFICATION_TYPE":"U","NORAD_CAT_ID":67826,"ELEMENT_SET_NO":999,"REV_AT_EPOCH":383,"BSTAR":0.0035365,"MEAN_MOTION_DOT":0.00832801,"MEAN_MOTION_DDOT":0},{"OBJECT_NAME":"STARLINK-36289","OBJECT_ID":"2026-033G","EPOCH":"2026-03-04T16:51:17.847360","MEAN_MOTION":15.82042402,"ECCENTRICITY":0.0001304,"INCLINATION":42.9971,"RA_OF_ASC_NODE":302.0268,"ARG_OF_PERICENTER":274.8234,"MEAN_ANOMALY":85.2489,"EPHEMERIS_TYPE":0,"CLASSIFICATION_TYPE":"U","NORAD_CAT_ID":67827,"ELEMENT_SET_NO":999,"REV_AT_EPOCH":383,"BSTAR":0.002473,"MEAN_MOTION_DOT":0.00555756,"MEAN_MOTION_DDOT":0},{"OBJECT_NAME":"STARLINK-36670","OBJECT_ID":"2026-033H","EPOCH":"2026-03-04T16:50:13.370496","MEAN_MOTION":15.82397341,"ECCENTRICITY":0.0001725,"INCLINATION":42.997,"RA_OF_ASC_NODE":302.021,"ARG_OF_PERICENTER":257.2638,"MEAN_ANOMALY":102.8042,"EPHEMERIS_TYPE":0,"CLASSIFICATION_TYPE":"U","NORAD_CAT_ID":67828,"ELEMENT_SET_NO":999,"REV_AT_EPOCH":383,"BSTAR":0.0037805,"MEAN_MOTION_DOT":0.00899765,"MEAN_MOTION_DDOT":0},{"OBJECT_NAME":"STARLINK-36144","OBJECT_ID":"2026-033J","EPOCH":"2026-03-04T16:49:08.272416","MEAN_MOTION":15.82040252,"ECCENTRICITY":0.0001755,"INCLINATION":42.9969,"RA_OF_ASC_NODE":302.014,"ARG_OF_PERICENTER":247.4431,"MEAN_ANOMALY":112.6255,"EPHEMERIS_TYPE":0,"CLASSIFICATION_TYPE":"U","NORAD_CAT_ID":67829,"ELEMENT_SET_NO":999,"REV_AT_EPOCH":383,"BSTAR":0.0018436,"MEAN_MOTION_DOT":0.00406948,"MEAN_MOTION_DDOT":0},{"OBJECT_NAME":"STARLINK-36611","OBJECT_ID":"2026-033K","EPOCH":"2026-03-04T16:48:03.778272","MEAN_MOTION":15.82460475,"ECCENTRICITY":0.0003887,"INCLINATION":42.9967,"RA_OF_ASC_NODE":302.0082,"ARG_OF_PERICENTER":232.6537,"MEAN_ANOMALY":127.3981,"EPHEMERIS_TYPE":0,"CLASSIFICATION_TYPE":"U","NORAD_CAT_ID":67830,"ELEMENT_SET_NO":999,"REV_AT_EPOCH":383,"BSTAR":0.0036272,"MEAN_MOTION_DOT":0.00861721,"MEAN_MOTION_DDOT":0},{"OBJECT_NAME":"STARLINK-36661","OBJECT_ID":"2026-033L","EPOCH":"2026-03-04T16:46:59.086272","MEAN_MOTION":15.82466683,"ECCENTRICITY":0.0002101,"INCLINATION":42.9966,"RA_OF_ASC_NODE":302.0016,"ARG_OF_PERICENTER":229.0543,"MEAN_ANOMALY":131.0147,"EPHEMERIS_TYPE":0,"CLASSIFICATION_TYPE":"U","NORAD_CAT_ID":67831,"ELEMENT_SET_NO":999,"REV_AT_EPOCH":383,"BSTAR":0.0036014,"MEAN_MOTION_DOT":0.00855349,"MEAN_MOTION_DDOT":0},{"OBJECT_NAME":"STARLINK-36662","OBJECT_ID":"2026-033M","EPOCH":"2026-03-04T20:00:03.000384","MEAN_MOTION":15.84378369,"ECCENTRICITY":0.0002153,"INCLINATION":42.9961,"RA_OF_ASC_NODE":300.3933,"ARG_OF_PERICENTER":257.9824,"MEAN_ANOMALY":98.9539,"EPHEMERIS_TYPE":0,"CLASSIFICATION_TYPE":"U","NORAD_CAT_ID":67832,"ELEMENT_SET_NO":999,"REV_AT_EPOCH":388,"BSTAR":0.00032712,"MEAN_MOTION_DOT":0.00077169,"MEAN_MOTION_DDOT":0},{"OBJECT_NAME":"STARLINK-36659","OBJECT_ID":"2026-033N","EPOCH":"2026-03-04T16:45:54.103968","MEAN_MOTION":15.82059822,"ECCENTRICITY":0.0001268,"INCLINATION":42.9969,"RA_OF_ASC_NODE":301.9959,"ARG_OF_PERICENTER":306.1416,"MEAN_ANOMALY":53.9338,"EPHEMERIS_TYPE":0,"CLASSIFICATION_TYPE":"U","NORAD_CAT_ID":67833,"ELEMENT_SET_NO":999,"REV_AT_EPOCH":383,"BSTAR":0.0017469,"MEAN_MOTION_DOT":0.00384936,"MEAN_MOTION_DDOT":0},{"OBJECT_NAME":"STARLINK-36655","OBJECT_ID":"2026-033P","EPOCH":"2026-03-04T16:44:49.708320","MEAN_MOTION":15.82030201,"ECCENTRICITY":0.0002101,"INCLINATION":42.9972,"RA_OF_ASC_NODE":301.9897,"ARG_OF_PERICENTER":291.8245,"MEAN_ANOMALY":68.2403,"EPHEMERIS_TYPE":0,"CLASSIFICATION_TYPE":"U","NORAD_CAT_ID":67834,"ELEMENT_SET_NO":999,"REV_AT_EPOCH":383,"BSTAR":0.0012867,"MEAN_MOTION_DOT":0.00279513,"MEAN_MOTION_DDOT":0},{"OBJECT_NAME":"STARLINK-36657","OBJECT_ID":"2026-033Q","EPOCH":"2026-03-04T16:43:44.867712","MEAN_MOTION":15.82392731,"ECCENTRICITY":0.0003675,"INCLINATION":42.9971,"RA_OF_ASC_NODE":301.9833,"ARG_OF_PERICENTER":251.5835,"MEAN_ANOMALY":108.4637,"EPHEMERIS_TYPE":0,"CLASSIFICATION_TYPE":"U","NORAD_CAT_ID":67835,"ELEMENT_SET_NO":999,"REV_AT_EPOCH":383,"BSTAR":0.003702,"MEAN_MOTION_DOT":0.00878456,"MEAN_MOTION_DDOT":0},{"OBJECT_NAME":"STARLINK-36650","OBJECT_ID":"2026-033R","EPOCH":"2026-03-04T16:42:40.301856","MEAN_MOTION":15.82366334,"ECCENTRICITY":0.0003316,"INCLINATION":42.9969,"RA_OF_ASC_NODE":301.9774,"ARG_OF_PERICENTER":254.8669,"MEAN_ANOMALY":105.1836,"EPHEMERIS_TYPE":0,"CLASSIFICATION_TYPE":"U","NORAD_CAT_ID":67836,"ELEMENT_SET_NO":999,"REV_AT_EPOCH":383,"BSTAR":0.0035472,"MEAN_MOTION_DOT":0.00836562,"MEAN_MOTION_DDOT":0},{"OBJECT_NAME":"STARLINK-36649","OBJECT_ID":"2026-033S","EPOCH":"2026-03-04T16:41:35.181312","MEAN_MOTION":15.82024677,"ECCENTRICITY":0.0002131,"INCLINATION":42.9973,"RA_OF_ASC_NODE":301.9715,"ARG_OF_PERICENTER":284.3418,"MEAN_ANOMALY":75.7217,"EPHEMERIS_TYPE":0,"CLASSIFICATION_TYPE":"U","NORAD_CAT_ID":67837,"ELEMENT_SET_NO":999,"REV_AT_EPOCH":383,"BSTAR":0.0018476,"MEAN_MOTION_DOT":0.00407549,"MEAN_MOTION_DDOT":0},{"OBJECT_NAME":"STARLINK-36654","OBJECT_ID":"2026-033T","EPOCH":"2026-03-04T16:40:30.599040","MEAN_MOTION":15.82402796,"ECCENTRICITY":0.0003479,"INCLINATION":42.9969,"RA_OF_ASC_NODE":301.9648,"ARG_OF_PERICENTER":238.6717,"MEAN_ANOMALY":121.3815,"EPHEMERIS_TYPE":0,"CLASSIFICATION_TYPE":"U","NORAD_CAT_ID":67838,"ELEMENT_SET_NO":999,"REV_AT_EPOCH":383,"BSTAR":0.0037217,"MEAN_MOTION_DOT":0.0088413,"MEAN_MOTION_DDOT":0},{"OBJECT_NAME":"STARLINK-36652","OBJECT_ID":"2026-033U","EPOCH":"2026-03-04T19:41:16.072224","MEAN_MOTION":15.81993451,"ECCENTRICITY":0.0004269,"INCLINATION":42.9964,"RA_OF_ASC_NODE":301.1853,"ARG_OF_PERICENTER":300.0902,"MEAN_ANOMALY":59.9547,"EPHEMERIS_TYPE":0,"CLASSIFICATION_TYPE":"U","NORAD_CAT_ID":67839,"ELEMENT_SET_NO":999,"REV_AT_EPOCH":385,"BSTAR":0.002947,"MEAN_MOTION_DOT":0.00669749,"MEAN_MOTION_DDOT":0},{"OBJECT_NAME":"STARLINK-36651","OBJECT_ID":"2026-033V","EPOCH":"2026-03-04T16:38:21.179616","MEAN_MOTION":15.82384287,"ECCENTRICITY":0.0003761,"INCLINATION":42.9969,"RA_OF_ASC_NODE":301.9528,"ARG_OF_PERICENTER":258.1196,"MEAN_ANOMALY":101.9254,"EPHEMERIS_TYPE":0,"CLASSIFICATION_TYPE":"U","NORAD_CAT_ID":67840,"ELEMENT_SET_NO":999,"REV_AT_EPOCH":383,"BSTAR":0.0035687,"MEAN_MOTION_DOT":0.00842935,"MEAN_MOTION_DDOT":0},{"OBJECT_NAME":"STARLINK-36656","OBJECT_ID":"2026-033W","EPOCH":"2026-03-04T16:37:16.523904","MEAN_MOTION":15.82391649,"ECCENTRICITY":0.0002323,"INCLINATION":42.9969,"RA_OF_ASC_NODE":301.9467,"ARG_OF_PERICENTER":264.5018,"MEAN_ANOMALY":95.5589,"EPHEMERIS_TYPE":0,"CLASSIFICATION_TYPE":"U","NORAD_CAT_ID":67841,"ELEMENT_SET_NO":999,"REV_AT_EPOCH":383,"BSTAR":0.0037022,"MEAN_MOTION_DOT":0.00878578,"MEAN_MOTION_DDOT":0},{"OBJECT_NAME":"STARLINK-36653","OBJECT_ID":"2026-033X","EPOCH":"2026-03-04T16:36:11.664288","MEAN_MOTION":15.82063255,"ECCENTRICITY":0.0001722,"INCLINATION":42.9969,"RA_OF_ASC_NODE":301.9401,"ARG_OF_PERICENTER":281.6713,"MEAN_ANOMALY":78.3966,"EPHEMERIS_TYPE":0,"CLASSIFICATION_TYPE":"U","NORAD_CAT_ID":67842,"ELEMENT_SET_NO":999,"REV_AT_EPOCH":383,"BSTAR":0.0016536,"MEAN_MOTION_DOT":0.00363487,"MEAN_MOTION_DDOT":0},{"OBJECT_NAME":"STARLINK-36589","OBJECT_ID":"2026-033Y","EPOCH":"2026-03-04T16:35:06.806400","MEAN_MOTION":15.82017259,"ECCENTRICITY":0.0001878,"INCLINATION":42.9967,"RA_OF_ASC_NODE":301.9341,"ARG_OF_PERICENTER":236.6658,"MEAN_ANOMALY":123.4034,"EPHEMERIS_TYPE":0,"CLASSIFICATION_TYPE":"U","NORAD_CAT_ID":67843,"ELEMENT_SET_NO":999,"REV_AT_EPOCH":383,"BSTAR":0.0020711,"MEAN_MOTION_DOT":0.00459569,"MEAN_MOTION_DDOT":0}]
